{"fetched_at":"2026-07-11T09:24:48.741Z","source":"https://celestrak.org/NORAD/elements/gp.php?NAME=WORLDVIEW&FORMAT=JSON","constellation":"worldview","records":[{"OBJECT_NAME":"WORLDVIEW-1 (WV-1)","OBJECT_ID":"2007-041A","EPOCH":"2026-07-10T17:25:45.153984","CLASSIFICATION_TYPE":"U","MEAN_MOTION":15.2452756,"ECCENTRICITY":0.0001149,"INCLINATION":97.3892,"RA_OF_ASC_NODE":311.1383,"ARG_OF_PERICENTER":232.1635,"MEAN_ANOMALY":127.9499,"EPHEMERIS_TYPE":0,"NORAD_CAT_ID":32060,"ELEMENT_SET_NO":999,"REV_AT_EPOCH":4646,"BSTAR":0.00016247,"MEAN_MOTION_DOT":0.00003926,"MEAN_MOTION_DDOT":0},{"OBJECT_NAME":"WORLDVIEW-2 (WV-2)","OBJECT_ID":"2009-055A","EPOCH":"2026-07-11T04:06:08.689824","CLASSIFICATION_TYPE":"U","MEAN_MOTION":14.37906299,"ECCENTRICITY":0.0005143,"INCLINATION":98.4757,"RA_OF_ASC_NODE":265.2939,"ARG_OF_PERICENTER":139.5614,"MEAN_ANOMALY":220.5957,"EPHEMERIS_TYPE":0,"NORAD_CAT_ID":35946,"ELEMENT_SET_NO":999,"REV_AT_EPOCH":87909,"BSTAR":0.000030005,"MEAN_MOTION_DOT":4.7e-7,"MEAN_MOTION_DDOT":0},{"OBJECT_NAME":"WORLDVIEW-3 (WV-3)","OBJECT_ID":"2014-048A","EPOCH":"2026-07-11T03:42:24.637248","CLASSIFICATION_TYPE":"U","MEAN_MOTION":14.85060431,"ECCENTRICITY":0.0000984,"INCLINATION":97.8557,"RA_OF_ASC_NODE":266.6558,"ARG_OF_PERICENTER":161.4439,"MEAN_ANOMALY":198.6812,"EPHEMERIS_TYPE":0,"NORAD_CAT_ID":40115,"ELEMENT_SET_NO":999,"REV_AT_EPOCH":64546,"BSTAR":0.000055093,"MEAN_MOTION_DOT":0.00000417,"MEAN_MOTION_DDOT":0},{"OBJECT_NAME":"WORLDVIEW-2 DEB","OBJECT_ID":"2009-055K","EPOCH":"2026-07-11T04:35:55.943808","CLASSIFICATION_TYPE":"U","MEAN_MOTION":14.58912682,"ECCENTRICITY":0.0009257,"INCLINATION":98.353,"RA_OF_ASC_NODE":286.6084,"ARG_OF_PERICENTER":131.1418,"MEAN_ANOMALY":229.0581,"EPHEMERIS_TYPE":0,"NORAD_CAT_ID":41742,"ELEMENT_SET_NO":999,"REV_AT_EPOCH":52561,"BSTAR":0.00052761,"MEAN_MOTION_DOT":0.00002426,"MEAN_MOTION_DDOT":0}]}
